#aV2011  1 12  0  0   .00000000      96 DD+AD WGS84 FIT  NGA
## 1618 259200.00000000   900.00000000 55573  .0000000000000
+   32     1  2  3  4  5  6  7  8  9 10 11 12 13 14 15 16 17
+         18 19 20 21 22 23 24 25 26 27 28 29 30 31 32  0  0
+          0  0  0  0  0  0  0  0  0  0  0  0  0  0  0  0  0
+          0  0  0  0  0  0  0  0  0  0  0  0  0  0  0  0  0
+          0  0  0  0  0  0  0  0  0  0  0  0  0  0  0  0  0
++         0  0  0  0  0  0  0  0  0  0  0  0  0  0  0  0  0
++         0  0  0  0  0  0  0  0  0  0  0  0  0  0  0  0  0
++         0  0  0  0  0  0  0  0  0  0  0  0  0  0  0  0  0
++         0  0  0  0  0  0  0  0  0  0  0  0  0  0  0  0  0
++         0  0  0  0  0  0  0  0  0  0  0  0  0  0  0  0  0
%c cc cc ccc ccc cccc cccc cccc cccc ccccc ccccc ccccc ccccc
%c cc cc ccc ccc cccc cccc cccc cccc ccccc ccccc ccccc ccccc
%f  0.0000000  0.000000000  0.00000000000  0.000000000000000
%f  0.0000000  0.000000000  0.00000000000  0.000000000000000
%i    0    0    0    0      0      0      0      0         0
%i    0    0    0    0      0      0      0      0         0
/*      NGA, ST. LOUIS,MO.                                  
/*   EPHEMERIS COMPUTED FROM  3 DAYS OF DATA                
/* CCCCCCCCCCCCCCCCCCCCCCCCCCCCCCCCCCCCCCCCCCCCCCCCCCCCCCCCC
/* CCCCCCCCCCCCCCCCCCCCCCCCCCCCCCCCCCCCCCCCCCCCCCCCCCCCCCCCC
*  2011  1 12 11 45   .00000000                                                 
P  1   7770.327589  12976.377707 -21941.234882   -199.427628                    
V  1 -23178.706344  14937.851124    757.652415      -.032369                    
P  2 -13265.262813 -16220.439599 -16579.876985    314.242412                    
V  2    521.631723 -21038.394076  19674.284730       .021789                    
P  3  24541.946903  10484.673552  -2015.422511    661.463724                    
V  3  -3147.383087   2606.992283 -30677.841011       .051375                    
P  4  -7676.921376 -23717.994183  -8832.634717      6.670850                    
V  4   2907.557815 -11241.087291  28666.807595       .099544                    
P  5 -19052.097655  -3037.477786 -18316.341556    -97.654975                    
V  5  18600.801248 -13951.668971 -16948.717812      -.059608                    
P  6  22285.783872  13787.288902  -4760.763136     -1.908594                    
V  6  -7069.997624    548.060549 -30281.901798      -.308628                    
P  7   6342.526877 -23289.218551 -10845.408134      1.701031                    
V  7   2871.702247  13716.115668 -27952.470159       .005906                    
P  8    538.871748 -26249.580451    301.049012      7.142550                    
V  8   2198.475230   -303.748400 -32864.829677       .000320                    
P  9 -13769.530860   6297.558466  21279.930693     54.858186                    
V  9  -2594.142421 -28139.292254   6498.150927       .024504                    
P 10  -6069.629590 -14416.976656 -21644.583160    -63.043071                    
V 10  23272.181021 -13831.817352   3080.369989      -.010850                    
P 11  14614.398032  -8368.223968  20189.495667   -118.675147                    
V 11   8730.892660  25279.869173   4451.053325      -.031165                    
P 12 -23769.842216   9678.595350   6537.624454    -36.472128                    
V 12   5722.014681  -6458.687746  30683.913968       .033254                    
P 13   9228.114340 -11437.147270 -22261.719645    286.151675                    
V 13  23703.557563  14618.143814   2285.390743      -.012601                    
P 14   9241.447977  18413.071672  16995.681008    123.167845                    
V 14 -18920.223740  -9577.310653  20729.791491       .029406                    
P 15 -22835.971654   -280.757794  13704.512109   -162.045392                    
V 15 -14569.987812  -9669.938458 -24354.776402       .038175                    
P 16  16086.691917   6309.345036 -20219.868348   -142.058592                    
V 16 -21524.911524  13924.439854 -12480.256643      -.030640                    
P 17  -7720.561137 -18369.643399  17789.944295    181.521329                    
V 17  20254.068288   9371.786797  18368.302339       .006713                    
P 18 -12152.629083  19335.726294  13542.587180    115.518688                    
V 18 -15958.699999   6385.408056 -24335.431186       .020793                    
P 19  23785.088232   5924.890977  10637.094458   -100.782354                    
V 19  10195.896451   8979.989491 -27482.225019      -.036092                    
P 20  22521.798955 -13824.497814   2133.670670     48.809252                    
V 20   -256.270097   4689.454328  31049.162549      -.000777                    
P 21  -5811.853484  23776.518843  -9121.336173   -116.122017                    
V 21  -4459.436004 -12180.573987 -28399.877387      -.027417                    
P 22   -686.131125  17753.578813  19883.346788    155.268035                    
V 22 -22036.902321  11927.221352 -11600.306680      -.006944                    
P 23  19436.393526  -3758.225718 -17866.695350    332.650536                    
V 23  19348.956241  11650.277560  18272.396123      -.022734                    
P 24  14705.031683  -8387.573048  20466.513869    355.860153                    
V 24   1100.633507  25962.077481  10137.700338       .031772                    
P 25 -18138.593641  18063.206172  -7097.956693    -63.177799                    
V 25  -8931.521066   2819.572334  30058.280016      -.020319                    
P 26 -23409.948845 -12810.102785   1777.970031    -94.352743                    
V 26  -1677.116718  -2886.532929 -31985.400648      -.091546                    
P 27 -15229.504058  -1110.905256  22429.360941    226.190739                    
V 27  -2614.260528 -26648.509644  -2933.297085       .037771                    
P 28   4632.462210 -18048.372870  19325.428931     14.164920                    
V 28  20862.780825 -10964.201812 -15926.273981       .019599                    
P 29 -11584.670768  10598.609518 -21337.839396    177.488590                    
V 29 -23573.469699 -13749.023768   5983.265269       .026891                    
P 30   9154.545558  12461.328449 -22039.972436    312.812211                    
V 30 -21958.098616  15624.895281   -282.289027       .033317                    
P 31   8059.310938  22829.390396 -10472.082877     28.871765                    
V 31  -1581.558165  13742.850565  28359.145617       .041929                    
P 32  24066.677343  -4877.466958   9897.517908   -173.430765                    
V 32  -9494.707650   8293.398571  28413.478287      -.081283                    
EOF
